[{"OBJECT_NAME":"STARLINK-34876","OBJECT_ID":"2025-191X","EPOCH":"2026-03-09T15:01:24.415392","MEAN_MOTION":15.05648669,"ECCENTRICITY":0.0002783,"INCLINATION":97.6021,"RA_OF_ASC_NODE":301.5241,"ARG_OF_PERICENTER":61.0245,"MEAN_ANOMALY":299.126,"EPHEMERIS_TYPE":0,"CLASSIFICATION_TYPE":"U","NORAD_CAT_ID":65400,"ELEMENT_SET_NO":999,"REV_AT_EPOCH":3026,"BSTAR":0.00011956,"MEAN_MOTION_DOT":1.665e-5,"MEAN_MOTION_DDOT":0},{"OBJECT_NAME":"COSMOS 2251 DEB","OBJECT_ID":"1993-036AXJ","EPOCH":"2026-03-07T16:14:39.475392","MEAN_MOTION":15.02350149,"ECCENTRICITY":0.00052276,"INCLINATION":74.0329,"RA_OF_ASC_NODE":161.7612,"ARG_OF_PERICENTER":248.7206,"MEAN_ANOMALY":111.3424,"EPHEMERIS_TYPE":0,"CLASSIFICATION_TYPE":"U","NORAD_CAT_ID":36047,"ELEMENT_SET_NO":999,"REV_AT_EPOCH":67212,"BSTAR":0.0041103158,"MEAN_MOTION_DOT":0.00054783,"MEAN_MOTION_DDOT":0}]
